CCSDS_OMM_VERS = 2.0
CREATION_DATE  = 
ORIGINATOR     = 

OBJECT_NAME    = SL-14 R/B
OBJECT_ID      = 1986-046B
CENTER_NAME    = EARTH
REF_FRAME      = TEME
TIME_SYSTEM    = UTC
MEAN_ELEMENT_THEORY = SGP/SGP4

EPOCH          = 2025-12-21T22:37:39.299808
MEAN_MOTION    = 14.85494348
ECCENTRICITY   = .00243913
INCLINATION    = 82.4816
RA_OF_ASC_NODE = 153.6225
ARG_OF_PERICENTER = 123.0879
MEAN_ANOMALY   = 237.2684

EPHEMERIS_TYPE = 0
CLASSIFICATION_TYPE = U
NORAD_CAT_ID   = 16792
ELEMENT_SET_NO = 999
REV_AT_EPOCH   = 11486
BSTAR          = .56051875E-4
MEAN_MOTION_DOT = .511E-5
MEAN_MOTION_DDOT = 0

CCSDS_OMM_VERS = 2.0
CREATION_DATE  = 
ORIGINATOR     = 

OBJECT_NAME    = SL-14 R/B
OBJECT_ID      = 1986-055B
CENTER_NAME    = EARTH
REF_FRAME      = TEME
TIME_SYSTEM    = UTC
MEAN_ELEMENT_THEORY = SGP/SGP4

EPOCH          = 2025-12-22T14:44:07.688832
MEAN_MOTION    = 14.85539715
ECCENTRICITY   = .00178323
INCLINATION    = 82.5196
RA_OF_ASC_NODE = 199.0943
ARG_OF_PERICENTER = 224.1586
MEAN_ANOMALY   = 195.2672

EPHEMERIS_TYPE = 0
CLASSIFICATION_TYPE = U
NORAD_CAT_ID   = 16882
ELEMENT_SET_NO = 999
REV_AT_EPOCH   = 10792
BSTAR          = .45262541E-4
MEAN_MOTION_DOT = .416E-5
MEAN_MOTION_DDOT = 0

CCSDS_OMM_VERS = 2.0
CREATION_DATE  = 
ORIGINATOR     = 

OBJECT_NAME    = AJISAI (EGS)
OBJECT_ID      = 1986-061A
CENTER_NAME    = EARTH
REF_FRAME      = TEME
TIME_SYSTEM    = UTC
MEAN_ELEMENT_THEORY = SGP/SGP4

EPOCH          = 2025-12-22T13:14:33.329760
MEAN_MOTION    = 12.44514395
ECCENTRICITY   = .00113132
INCLINATION    = 50.0113
RA_OF_ASC_NODE = 330.5461
ARG_OF_PERICENTER = 90.5358
MEAN_ANOMALY   = 29.3478

EPHEMERIS_TYPE = 0
CLASSIFICATION_TYPE = U
NORAD_CAT_ID   = 16908
ELEMENT_SET_NO = 999
REV_AT_EPOCH   = 45839
BSTAR          = .37757175E-4
MEAN_MOTION_DOT = -.92E-6
MEAN_MOTION_DDOT = 0

CCSDS_OMM_VERS = 2.0
CREATION_DATE  = 
ORIGINATOR     = 

OBJECT_NAME    = COSMOS 1812
OBJECT_ID      = 1987-003A
CENTER_NAME    = EARTH
REF_FRAME      = TEME
TIME_SYSTEM    = UTC
MEAN_ELEMENT_THEORY = SGP/SGP4

EPOCH          = 2025-12-21T19:23:13.430976
MEAN_MOTION    = 15.77244861
ECCENTRICITY   = .00066422
INCLINATION    = 82.4880
RA_OF_ASC_NODE = 282.1869
ARG_OF_PERICENTER = 71.7532
MEAN_ANOMALY   = 288.4456

EPHEMERIS_TYPE = 0
CLASSIFICATION_TYPE = U
NORAD_CAT_ID   = 17295
ELEMENT_SET_NO = 999
REV_AT_EPOCH   = 13208
BSTAR          = .60505908E-3
MEAN_MOTION_DOT = .99997E-3
MEAN_MOTION_DDOT = 0

CCSDS_OMM_VERS = 2.0
CREATION_DATE  = 
ORIGINATOR     = 

OBJECT_NAME    = SL-14 R/B
OBJECT_ID      = 1987-024B
CENTER_NAME    = EARTH
REF_FRAME      = TEME
TIME_SYSTEM    = UTC
MEAN_ELEMENT_THEORY = SGP/SGP4

EPOCH          = 2025-12-22T13:02:03.571296
MEAN_MOTION    = 14.86033399
ECCENTRICITY   = .00189385
INCLINATION    = 82.5276
RA_OF_ASC_NODE = 165.2449
ARG_OF_PERICENTER = 152.1591
MEAN_ANOMALY   = 208.0644

EPHEMERIS_TYPE = 0
CLASSIFICATION_TYPE = U
NORAD_CAT_ID   = 17567
ELEMENT_SET_NO = 999
REV_AT_EPOCH   = 7667
BSTAR          = .52248074E-4
MEAN_MOTION_DOT = .483E-5
MEAN_MOTION_DDOT = 0

CCSDS_OMM_VERS = 2.0
CREATION_DATE  = 
ORIGINATOR     = 

OBJECT_NAME    = COSMOS 1833
OBJECT_ID      = 1987-027A
CENTER_NAME    = EARTH
REF_FRAME      = TEME
TIME_SYSTEM    = UTC
MEAN_ELEMENT_THEORY = SGP/SGP4

EPOCH          = 2025-12-22T11:41:12.005664
MEAN_MOTION    = 14.13026380
ECCENTRICITY   = .00229373
INCLINATION    = 70.9155
RA_OF_ASC_NODE = 128.2868
ARG_OF_PERICENTER = 318.0987
MEAN_ANOMALY   = 41.8377

EPHEMERIS_TYPE = 0
CLASSIFICATION_TYPE = U
NORAD_CAT_ID   = 17589
ELEMENT_SET_NO = 999
REV_AT_EPOCH   = 99940
BSTAR          = .15196364E-3
MEAN_MOTION_DOT = .236E-5
MEAN_MOTION_DDOT = 0

CCSDS_OMM_VERS = 2.0
CREATION_DATE  = 
ORIGINATOR     = 

OBJECT_NAME    = SL-16 R/B
OBJECT_ID      = 1987-027B
CENTER_NAME    = EARTH
REF_FRAME      = TEME
TIME_SYSTEM    = UTC
MEAN_ELEMENT_THEORY = SGP/SGP4

EPOCH          = 2025-12-22T11:20:33.797760
MEAN_MOTION    = 14.17156135
ECCENTRICITY   = .00072321
INCLINATION    = 71.0038
RA_OF_ASC_NODE = 79.2099
ARG_OF_PERICENTER = 249.4479
MEAN_ANOMALY   = 110.5869

EPHEMERIS_TYPE = 0
CLASSIFICATION_TYPE = U
NORAD_CAT_ID   = 17590
ELEMENT_SET_NO = 999
REV_AT_EPOCH   = 440
BSTAR          = .80462758E-4
MEAN_MOTION_DOT = .114E-5
MEAN_MOTION_DDOT = 0

CCSDS_OMM_VERS = 2.0
CREATION_DATE  = 
ORIGINATOR     = 

OBJECT_NAME    = SL-14 R/B
OBJECT_ID      = 1987-038B
CENTER_NAME    = EARTH
REF_FRAME      = TEME
TIME_SYSTEM    = UTC
MEAN_ELEMENT_THEORY = SGP/SGP4

EPOCH          = 2025-12-22T11:57:41.013504
MEAN_MOTION    = 14.85269768
ECCENTRICITY   = .00207101
INCLINATION    = 82.5010
RA_OF_ASC_NODE = 9.5087
ARG_OF_PERICENTER = 62.0820
MEAN_ANOMALY   = 298.2489

EPHEMERIS_TYPE = 0
CLASSIFICATION_TYPE = U
NORAD_CAT_ID   = 17912
ELEMENT_SET_NO = 999
REV_AT_EPOCH   = 6777
BSTAR          = .49251086E-4
MEAN_MOTION_DOT = .449E-5
MEAN_MOTION_DDOT = 0

CCSDS_OMM_VERS = 2.0
CREATION_DATE  = 
ORIGINATOR     = 

OBJECT_NAME    = COSMOS 1844
OBJECT_ID      = 1987-041A
CENTER_NAME    = EARTH
REF_FRAME      = TEME
TIME_SYSTEM    = UTC
MEAN_ELEMENT_THEORY = SGP/SGP4

EPOCH          = 2025-12-22T12:47:26.284704
MEAN_MOTION    = 14.14529437
ECCENTRICITY   = .00297288
INCLINATION    = 70.8965
RA_OF_ASC_NODE = 196.9154
ARG_OF_PERICENTER = 141.5855
MEAN_ANOMALY   = 218.7391

EPHEMERIS_TYPE = 0
CLASSIFICATION_TYPE = U
NORAD_CAT_ID   = 17973
ELEMENT_SET_NO = 999
REV_AT_EPOCH   = 99267
BSTAR          = .17263964E-3
MEAN_MOTION_DOT = .284E-5
MEAN_MOTION_DDOT = 0

CCSDS_OMM_VERS = 2.0
CREATION_DATE  = 
ORIGINATOR     = 

OBJECT_NAME    = SL-14 R/B
OBJECT_ID      = 1987-055B
CENTER_NAME    = EARTH
REF_FRAME      = TEME
TIME_SYSTEM    = UTC
MEAN_ELEMENT_THEORY = SGP/SGP4

EPOCH          = 2025-12-22T03:38:32.308512
MEAN_MOTION    = 14.85530377
ECCENTRICITY   = .00191492
INCLINATION    = 82.4993
RA_OF_ASC_NODE = 62.1183
ARG_OF_PERICENTER = 269.8706
MEAN_ANOMALY   = 90.0316

EPHEMERIS_TYPE = 0
CLASSIFICATION_TYPE = U
NORAD_CAT_ID   = 18153
ELEMENT_SET_NO = 999
REV_AT_EPOCH   = 5842
BSTAR          = .51567907E-4
MEAN_MOTION_DOT = .471E-5
MEAN_MOTION_DDOT = 0

CCSDS_OMM_VERS = 2.0
CREATION_DATE  = 
ORIGINATOR     = 

OBJECT_NAME    = COSMOS 1867
OBJECT_ID      = 1987-060A
CENTER_NAME    = EARTH
REF_FRAME      = TEME
TIME_SYSTEM    = UTC
MEAN_ELEMENT_THEORY = SGP/SGP4

EPOCH          = 2025-12-22T12:33:34.603488
MEAN_MOTION    = 14.31487559
ECCENTRICITY   = .00136427
INCLINATION    = 65.0087
RA_OF_ASC_NODE = 162.8043
ARG_OF_PERICENTER = 272.0464
MEAN_ANOMALY   = 87.9058

EPHEMERIS_TYPE = 0
CLASSIFICATION_TYPE = U
NORAD_CAT_ID   = 18187
ELEMENT_SET_NO = 999
REV_AT_EPOCH   = 889
BSTAR          = .22066628E-4
MEAN_MOTION_DOT = -.42E-6
MEAN_MOTION_DDOT = 0

CCSDS_OMM_VERS = 2.0
CREATION_DATE  = 
ORIGINATOR     = 

OBJECT_NAME    = SL-14 R/B
OBJECT_ID      = 1988-001B
CENTER_NAME    = EARTH
REF_FRAME      = TEME
TIME_SYSTEM    = UTC
MEAN_ELEMENT_THEORY = SGP/SGP4

EPOCH          = 2025-12-22T11:29:29.047488
MEAN_MOTION    = 14.85433586
ECCENTRICITY   = .00192421
INCLINATION    = 82.5135
RA_OF_ASC_NODE = 267.9877
ARG_OF_PERICENTER = 130.2857
MEAN_ANOMALY   = 230.0045

EPHEMERIS_TYPE = 0
CLASSIFICATION_TYPE = U
NORAD_CAT_ID   = 18749
ELEMENT_SET_NO = 999
REV_AT_EPOCH   = 3056
BSTAR          = .52896832E-4
MEAN_MOTION_DOT = .482E-5
MEAN_MOTION_DDOT = 0

