SL-14 R/B               
1 16792U 86046B   25355.94281597  .00000511  00000+0  56052-4 0  9992
2 16792  82.4816 153.6225 0024391 123.0879 237.2684 14.85494348114861
SL-14 R/B               
1 16882U 86055B   25356.61397788  .00000416  00000+0  45263-4 0  9993
2 16882  82.5196 199.0943 0017832 224.1586 195.2672 14.85539715107921
AJISAI (EGS)            
1 16908U 86061A   25356.55177465 -.00000092  00000+0  37757-4 0  9990
2 16908  50.0113 330.5461 0011313  90.5358  29.3478 12.44514395458397
COSMOS 1812             
1 17295U 87003A   25355.80779434  .00099997  00000+0  60506-3 0  9996
2 17295  82.4880 282.1869 0006642  71.7532 288.4456 15.77244861132081
SL-14 R/B               
1 17567U 87024B   25356.54309689  .00000483  00000+0  52248-4 0  9991
2 17567  82.5276 165.2449 0018938 152.1591 208.0644 14.86033399 76678
COSMOS 1833             
1 17589U 87027A   25356.48694451  .00000236  00000+0  15196-3 0  9991
2 17589  70.9155 128.2868 0022937 318.0987  41.8377 14.13026380999402
SL-16 R/B               
1 17590U 87027B   25356.47261340  .00000114  00000+0  80463-4 0  9994
2 17590  71.0038  79.2099 0007232 249.4479 110.5869 14.17156135  4404
SL-14 R/B               
1 17912U 87038B   25356.49839136  .00000449  00000+0  49251-4 0  9991
2 17912  82.5010   9.5087 0020710  62.0820 298.2489 14.85269768 67770
COSMOS 1844             
1 17973U 87041A   25356.53294311  .00000284  00000+0  17264-3 0  9992
2 17973  70.8965 196.9154 0029728 141.5855 218.7391 14.14529437992670
SL-14 R/B               
1 18153U 87055B   25356.15176283  .00000471  00000+0  51568-4 0  9997
2 18153  82.4993  62.1183 0019149 269.8706  90.0316 14.85530377 58429
COSMOS 1867             
1 18187U 87060A   25356.52331717 -.00000042  00000+0  22067-4 0  9993
2 18187  65.0087 162.8043 0013642 272.0464  87.9058 14.31487559  8897
SL-14 R/B               
1 18749U 88001B   25356.47880842  .00000482  00000+0  52897-4 0  9996
2 18749  82.5135 267.9877 0019242 130.2857 230.0045 14.85433586 30560
